[{"OBJECT_NAME":"STARLINK-11075 [DTC]","OBJECT_ID":"2024-002B","EPOCH":"2026-03-09T17:37:29.615520","MEAN_MOTION":15.69703246,"ECCENTRICITY":0.00010441,"INCLINATION":53.1578,"RA_OF_ASC_NODE":273.858,"ARG_OF_PERICENTER":96.0954,"MEAN_ANOMALY":264.0182,"EPHEMERIS_TYPE":0,"CLASSIFICATION_TYPE":"U","NORAD_CAT_ID":58706,"ELEMENT_SET_NO":999,"REV_AT_EPOCH":12644,"BSTAR":5.6831528e-5,"MEAN_MOTION_DOT":6.3e-5,"MEAN_MOTION_DDOT":0},{"OBJECT_NAME":"CZ-2D DEB","OBJECT_ID":"2005-024K","EPOCH":"2026-03-07T20:58:14.771712","MEAN_MOTION":15.70813446,"ECCENTRICITY":0.0005756,"INCLINATION":97.1809,"RA_OF_ASC_NODE":100.1703,"ARG_OF_PERICENTER":144.4044,"MEAN_ANOMALY":215.7604,"EPHEMERIS_TYPE":0,"CLASSIFICATION_TYPE":"U","NORAD_CAT_ID":35271,"ELEMENT_SET_NO":999,"REV_AT_EPOCH":8871,"BSTAR":0.00070506615,"MEAN_MOTION_DOT":0.00088213,"MEAN_MOTION_DDOT":0}]
